KUIPER-00125            
1 65954U 25228H   26007.83335648 -.00956154  00000+0 -36752-1 0  9998
2 65954  51.8824 254.6108 0004981 129.3116  33.9743 15.28457950  4964
KUIPER-00126            
1 65955U 25228J   26007.41190927 -.00001096  00000+0 -11478-3 0  9998
2 65955  51.8997 271.5802 0000673  78.7480 281.3558 14.79954927 14156
KUIPER-00127            
1 65956U 25228K   26007.08311570  .00009545  00000+0  81802-3 0  9994
2 65956  51.8944 268.4335 0006012 147.8686 212.2651 14.98108168 14172
KUIPER-00128            
1 65957U 25228L   26007.83335648 -.00057174  00000+0 -69004-2 0  9992
2 65957  51.8992 262.3190 0000609  21.0308 153.0449 14.83589354  5865
KUIPER-00129            
1 65958U 25228M   26007.83335648 -.01699896  00000+0 -15133+0 0  9998
2 65958  51.8923 258.1082 0001301  40.5883 221.2057 14.99161137  5750
KUIPER-00130            
1 65959U 25228N   26007.83335648 -.00048588  00000+0 -50932-2 0  9993
2 65959  51.8965 260.0518 0006529 124.4508 259.9719 14.89227365  4630
KUIPER-00134            
1 65960U 25228P   26007.42130252  .00030198  00000+0  84057-3 0  9996
2 65960  51.8762 256.6740 0007653 109.2175 250.9640 15.36537488 14363
KUIPER-00135            
1 65961U 25228Q   26007.83335648 -.00038891  00000+0 -39645-2 0  9990
2 65961  51.9014 260.2140 0003964 142.0072  31.6629 14.90251354  3860
